HULIANWANG DIGUI-142    
1 67440U 26007F   26024.88856232 -.00000117  00000+0  23419-4 0  9994
2 67440  50.0160 249.5820 0002139 286.5613  73.5050 13.89885362  1577
HULIANWANG DIGUI-143    
1 67441U 26007G   26024.88753917  .00000117  00000+0  21190-3 0  9993
2 67441  50.0102 249.5769 0001566 200.2940 159.7897 13.90046772  1577
HULIANWANG DIGUI-144    
1 67442U 26007H   26024.88637888  .00000094  00000+0  19272-3 0  9994
2 67442  50.0112 249.5685 0001781 310.1669  49.9073 13.90447710  1577
HULIANWANG DIGUI-145    
1 67443U 26007J   26024.88471266  .00000130  00000+0  22007-3 0  9992
2 67443  49.9806 249.6254 0008971  27.5132 332.6239 13.90781533  1570
CZ-8A R/B               
1 67444U 26007K   26024.99970500  .00000189  00000+0  17478-3 0  9990
2 67444  50.0088 247.4951 0092183 122.0309 238.9595 14.13547971  1600
STARLINK-36542          
1 67445U 26008A   26025.16667824 -.01216335  43142-3 -35748-2 0  9996
2 67445  43.0008  98.1089 0001382 277.5363 136.8547 15.91807009  2797
STARLINK-36539          
1 67446U 26008B   26025.16667824 -.01237683  44559-3 -36282-2 0  9993
2 67446  43.0008  98.1024 0001474 274.8204 142.1499 15.91859660  2799
STARLINK-36440          
1 67447U 26008C   26025.16667824 -.01241277  44816-3 -36301-2 0  9996
2 67447  43.0009  98.0957 0001360 275.2613 144.5019 15.91906068  2797
STARLINK-36423          
1 67448U 26008D   26025.16667824 -.01249944  45411-3 -36469-2 0  9993
2 67448  43.0010  98.0890 0001473 277.1076 145.1610 15.91952446  2790
STARLINK-36519          
1 67449U 26008E   26025.16667824 -.01256741  45885-3 -36580-2 0  9996
2 67449  43.0010  98.0821 0001384 275.0513 149.9401 15.91999521  2794
STARLINK-36525          
1 67450U 26008F   26025.16667824 -.01268930  46726-3 -36839-2 0  9993
2 67450  43.0007  98.0740 0001367 276.1867 151.9843 15.92051460  2792
STARLINK-36511          
1 67451U 26008G   26025.16667824 -.01282605  47676-3 -37135-2 0  9994
2 67451  43.0008  98.0659 0001445 276.7363 154.7248 15.92105673  2793
