CCSDS_OMM_VERS = 2.0
CREATION_DATE  = 
ORIGINATOR     = 

OBJECT_NAME    = HULIANWANG DIGUI-142
OBJECT_ID      = 2026-007F
CENTER_NAME    = EARTH
REF_FRAME      = TEME
TIME_SYSTEM    = UTC
MEAN_ELEMENT_THEORY = SGP/SGP4

EPOCH          = 2026-01-24T21:19:31.784448
MEAN_MOTION    = 13.89885362
ECCENTRICITY   = .0002139
INCLINATION    = 50.0160
RA_OF_ASC_NODE = 249.5820
ARG_OF_PERICENTER = 286.5613
MEAN_ANOMALY   = 73.5050

EPHEMERIS_TYPE = 0
CLASSIFICATION_TYPE = U
NORAD_CAT_ID   = 67440
ELEMENT_SET_NO = 999
REV_AT_EPOCH   = 157
BSTAR          = .23419E-4
MEAN_MOTION_DOT = -.117E-5
MEAN_MOTION_DDOT = 0

CCSDS_OMM_VERS = 2.0
CREATION_DATE  = 
ORIGINATOR     = 

OBJECT_NAME    = HULIANWANG DIGUI-143
OBJECT_ID      = 2026-007G
CENTER_NAME    = EARTH
REF_FRAME      = TEME
TIME_SYSTEM    = UTC
MEAN_ELEMENT_THEORY = SGP/SGP4

EPOCH          = 2026-01-24T21:18:03.384288
MEAN_MOTION    = 13.90046772
ECCENTRICITY   = .0001566
INCLINATION    = 50.0102
RA_OF_ASC_NODE = 249.5769
ARG_OF_PERICENTER = 200.2940
MEAN_ANOMALY   = 159.7897

EPHEMERIS_TYPE = 0
CLASSIFICATION_TYPE = U
NORAD_CAT_ID   = 67441
ELEMENT_SET_NO = 999
REV_AT_EPOCH   = 157
BSTAR          = .2119E-3
MEAN_MOTION_DOT = .117E-5
MEAN_MOTION_DDOT = 0

CCSDS_OMM_VERS = 2.0
CREATION_DATE  = 
ORIGINATOR     = 

OBJECT_NAME    = HULIANWANG DIGUI-144
OBJECT_ID      = 2026-007H
CENTER_NAME    = EARTH
REF_FRAME      = TEME
TIME_SYSTEM    = UTC
MEAN_ELEMENT_THEORY = SGP/SGP4

EPOCH          = 2026-01-24T21:16:23.135232
MEAN_MOTION    = 13.90447710
ECCENTRICITY   = .0001781
INCLINATION    = 50.0112
RA_OF_ASC_NODE = 249.5685
ARG_OF_PERICENTER = 310.1669
MEAN_ANOMALY   = 49.9073

EPHEMERIS_TYPE = 0
CLASSIFICATION_TYPE = U
NORAD_CAT_ID   = 67442
ELEMENT_SET_NO = 999
REV_AT_EPOCH   = 157
BSTAR          = .19272E-3
MEAN_MOTION_DOT = .94E-6
MEAN_MOTION_DDOT = 0

CCSDS_OMM_VERS = 2.0
CREATION_DATE  = 
ORIGINATOR     = 

OBJECT_NAME    = HULIANWANG DIGUI-145
OBJECT_ID      = 2026-007J
CENTER_NAME    = EARTH
REF_FRAME      = TEME
TIME_SYSTEM    = UTC
MEAN_ELEMENT_THEORY = SGP/SGP4

EPOCH          = 2026-01-24T21:13:59.173824
MEAN_MOTION    = 13.90781533
ECCENTRICITY   = .0008971
INCLINATION    = 49.9806
RA_OF_ASC_NODE = 249.6254
ARG_OF_PERICENTER = 27.5132
MEAN_ANOMALY   = 332.6239

EPHEMERIS_TYPE = 0
CLASSIFICATION_TYPE = U
NORAD_CAT_ID   = 67443
ELEMENT_SET_NO = 999
REV_AT_EPOCH   = 157
BSTAR          = .22007E-3
MEAN_MOTION_DOT = .13E-5
MEAN_MOTION_DDOT = 0

CCSDS_OMM_VERS = 2.0
CREATION_DATE  = 
ORIGINATOR     = 

OBJECT_NAME    = CZ-8A R/B
OBJECT_ID      = 2026-007K
CENTER_NAME    = EARTH
REF_FRAME      = TEME
TIME_SYSTEM    = UTC
MEAN_ELEMENT_THEORY = SGP/SGP4

EPOCH          = 2026-01-24T23:59:34.512000
MEAN_MOTION    = 14.13547971
ECCENTRICITY   = .0092183
INCLINATION    = 50.0088
RA_OF_ASC_NODE = 247.4951
ARG_OF_PERICENTER = 122.0309
MEAN_ANOMALY   = 238.9595

EPHEMERIS_TYPE = 0
CLASSIFICATION_TYPE = U
NORAD_CAT_ID   = 67444
ELEMENT_SET_NO = 999
REV_AT_EPOCH   = 160
BSTAR          = .17478E-3
MEAN_MOTION_DOT = .189E-5
MEAN_MOTION_DDOT = 0

CCSDS_OMM_VERS = 2.0
CREATION_DATE  = 
ORIGINATOR     = 

OBJECT_NAME    = STARLINK-36542
OBJECT_ID      = 2026-008A
CENTER_NAME    = EARTH
REF_FRAME      = TEME
TIME_SYSTEM    = UTC
MEAN_ELEMENT_THEORY = SGP/SGP4

EPOCH          = 2026-01-25T04:00:00.999936
MEAN_MOTION    = 15.91807009
ECCENTRICITY   = .0001382
INCLINATION    = 43.0008
RA_OF_ASC_NODE = 98.1089
ARG_OF_PERICENTER = 277.5363
MEAN_ANOMALY   = 136.8547

EPHEMERIS_TYPE = 0
CLASSIFICATION_TYPE = U
NORAD_CAT_ID   = 67445
ELEMENT_SET_NO = 999
REV_AT_EPOCH   = 279
BSTAR          = -.35748E-2
MEAN_MOTION_DOT = -.1216335E-1
MEAN_MOTION_DDOT = .43142E-3

CCSDS_OMM_VERS = 2.0
CREATION_DATE  = 
ORIGINATOR     = 

OBJECT_NAME    = STARLINK-36539
OBJECT_ID      = 2026-008B
CENTER_NAME    = EARTH
REF_FRAME      = TEME
TIME_SYSTEM    = UTC
MEAN_ELEMENT_THEORY = SGP/SGP4

EPOCH          = 2026-01-25T04:00:00.999936
MEAN_MOTION    = 15.91859660
ECCENTRICITY   = .0001474
INCLINATION    = 43.0008
RA_OF_ASC_NODE = 98.1024
ARG_OF_PERICENTER = 274.8204
MEAN_ANOMALY   = 142.1499

EPHEMERIS_TYPE = 0
CLASSIFICATION_TYPE = U
NORAD_CAT_ID   = 67446
ELEMENT_SET_NO = 999
REV_AT_EPOCH   = 279
BSTAR          = -.36282E-2
MEAN_MOTION_DOT = -.1237683E-1
MEAN_MOTION_DDOT = .44559E-3

CCSDS_OMM_VERS = 2.0
CREATION_DATE  = 
ORIGINATOR     = 

OBJECT_NAME    = STARLINK-36440
OBJECT_ID      = 2026-008C
CENTER_NAME    = EARTH
REF_FRAME      = TEME
TIME_SYSTEM    = UTC
MEAN_ELEMENT_THEORY = SGP/SGP4

EPOCH          = 2026-01-25T04:00:00.999936
MEAN_MOTION    = 15.91906068
ECCENTRICITY   = .000136
INCLINATION    = 43.0009
RA_OF_ASC_NODE = 98.0957
ARG_OF_PERICENTER = 275.2613
MEAN_ANOMALY   = 144.5019

EPHEMERIS_TYPE = 0
CLASSIFICATION_TYPE = U
NORAD_CAT_ID   = 67447
ELEMENT_SET_NO = 999
REV_AT_EPOCH   = 279
BSTAR          = -.36301E-2
MEAN_MOTION_DOT = -.1241277E-1
MEAN_MOTION_DDOT = .44816E-3

CCSDS_OMM_VERS = 2.0
CREATION_DATE  = 
ORIGINATOR     = 

OBJECT_NAME    = STARLINK-36423
OBJECT_ID      = 2026-008D
CENTER_NAME    = EARTH
REF_FRAME      = TEME
TIME_SYSTEM    = UTC
MEAN_ELEMENT_THEORY = SGP/SGP4

EPOCH          = 2026-01-25T04:00:00.999936
MEAN_MOTION    = 15.91952446
ECCENTRICITY   = .0001473
INCLINATION    = 43.0010
RA_OF_ASC_NODE = 98.0890
ARG_OF_PERICENTER = 277.1076
MEAN_ANOMALY   = 145.1610

EPHEMERIS_TYPE = 0
CLASSIFICATION_TYPE = U
NORAD_CAT_ID   = 67448
ELEMENT_SET_NO = 999
REV_AT_EPOCH   = 279
BSTAR          = -.36469E-2
MEAN_MOTION_DOT = -.1249944E-1
MEAN_MOTION_DDOT = .45411E-3

CCSDS_OMM_VERS = 2.0
CREATION_DATE  = 
ORIGINATOR     = 

OBJECT_NAME    = STARLINK-36519
OBJECT_ID      = 2026-008E
CENTER_NAME    = EARTH
REF_FRAME      = TEME
TIME_SYSTEM    = UTC
MEAN_ELEMENT_THEORY = SGP/SGP4

EPOCH          = 2026-01-25T04:00:00.999936
MEAN_MOTION    = 15.91999521
ECCENTRICITY   = .0001384
INCLINATION    = 43.0010
RA_OF_ASC_NODE = 98.0821
ARG_OF_PERICENTER = 275.0513
MEAN_ANOMALY   = 149.9401

EPHEMERIS_TYPE = 0
CLASSIFICATION_TYPE = U
NORAD_CAT_ID   = 67449
ELEMENT_SET_NO = 999
REV_AT_EPOCH   = 279
BSTAR          = -.3658E-2
MEAN_MOTION_DOT = -.1256741E-1
MEAN_MOTION_DDOT = .45885E-3

CCSDS_OMM_VERS = 2.0
CREATION_DATE  = 
ORIGINATOR     = 

OBJECT_NAME    = STARLINK-36525
OBJECT_ID      = 2026-008F
CENTER_NAME    = EARTH
REF_FRAME      = TEME
TIME_SYSTEM    = UTC
MEAN_ELEMENT_THEORY = SGP/SGP4

EPOCH          = 2026-01-25T04:00:00.999936
MEAN_MOTION    = 15.92051460
ECCENTRICITY   = .0001367
INCLINATION    = 43.0007
RA_OF_ASC_NODE = 98.0740
ARG_OF_PERICENTER = 276.1867
MEAN_ANOMALY   = 151.9843

EPHEMERIS_TYPE = 0
CLASSIFICATION_TYPE = U
NORAD_CAT_ID   = 67450
ELEMENT_SET_NO = 999
REV_AT_EPOCH   = 279
BSTAR          = -.36839E-2
MEAN_MOTION_DOT = -.126893E-1
MEAN_MOTION_DDOT = .46726E-3

CCSDS_OMM_VERS = 2.0
CREATION_DATE  = 
ORIGINATOR     = 

OBJECT_NAME    = STARLINK-36511
OBJECT_ID      = 2026-008G
CENTER_NAME    = EARTH
REF_FRAME      = TEME
TIME_SYSTEM    = UTC
MEAN_ELEMENT_THEORY = SGP/SGP4

EPOCH          = 2026-01-25T04:00:00.999936
MEAN_MOTION    = 15.92105673
ECCENTRICITY   = .0001445
INCLINATION    = 43.0008
RA_OF_ASC_NODE = 98.0659
ARG_OF_PERICENTER = 276.7363
MEAN_ANOMALY   = 154.7248

EPHEMERIS_TYPE = 0
CLASSIFICATION_TYPE = U
NORAD_CAT_ID   = 67451
ELEMENT_SET_NO = 999
REV_AT_EPOCH   = 279
BSTAR          = -.37135E-2
MEAN_MOTION_DOT = -.1282605E-1
MEAN_MOTION_DDOT = .47676E-3

